[{"OBJECT_NAME":"JILIN-1 GAOFEN 03D48","OBJECT_ID":"2022-167P","EPOCH":"2026-03-09T23:48:37.804608","MEAN_MOTION":15.32947339,"ECCENTRICITY":0.00075954,"INCLINATION":97.6781,"RA_OF_ASC_NODE":234.4968,"ARG_OF_PERICENTER":111.3084,"MEAN_ANOMALY":248.8969,"EPHEMERIS_TYPE":0,"CLASSIFICATION_TYPE":"U","NORAD_CAT_ID":54695,"ELEMENT_SET_NO":999,"REV_AT_EPOCH":18018,"BSTAR":0.00049677114,"MEAN_MOTION_DOT":0.00015755,"MEAN_MOTION_DDOT":0},{"OBJECT_NAME":"STARLINK-35525","OBJECT_ID":"2025-237W","EPOCH":"2026-03-09T03:37:56.649504","MEAN_MOTION":15.30190816,"ECCENTRICITY":0.00010223,"INCLINATION":53.1581,"RA_OF_ASC_NODE":42.441,"ARG_OF_PERICENTER":74.7663,"MEAN_ANOMALY":285.3451,"EPHEMERIS_TYPE":0,"CLASSIFICATION_TYPE":"U","NORAD_CAT_ID":66134,"ELEMENT_SET_NO":999,"REV_AT_EPOCH":2252,"BSTAR":0.0006743776,"MEAN_MOTION_DOT":0.00019661,"MEAN_MOTION_DDOT":0}]
